#dP2023 12 28  0  0  0.00000000      96 __u+U IGS20 FIT  IAC
## 2294 345600.00000000   900.00000000 60306 0.0000000000000
+  119   C06C07C08C09C10C11C12C13C14C16C19C20C21C22C23C24C25
+        C26C27C28C29C30C32C33C34C35C36C37C38C39C41C42C43C44
+        C45C46E02E03E04E05E07E08E09E10E11E12E13E14E15E18E19
+        E21E24E25E26E27E30E31E33E34E36G01G02G03G04G05G06G07
+        G08G09G10G11G12G13G14G15G16G17G18G19G20G21G22G23G24
+        G25G26G27G28G29G30G31G32J02J03J04R01R02R03R04R05R07
+        R08R09R11R12R13R14R15R16R17R18R19R20R21R22R24R25R26
++         7  8  0  8  8  8  7  9  7  8  6  7  7  6  7  5  6
++         6  8  8  7  6  7  7  7  7  7  8  7  8  6  7  8  6
++         5  8  6  6  6  6  6  5  5  6  7  5  4  5  4  7  6
++         6  6  6  5  7  6  5  6  6  7  6  6  5  5  6  5  6
++         5  5  7  5  5  5  5  6  6  5  7  6  5  6  5  7  5
++         5  6  6  6  6  6  5  5  8  8  7  9  6  6  6  7  7
++         7  6  5  5  6  7  6  6  6  6  6  6  6  5  6  8  7
%c M  cc GPS ccc cccc cccc cccc cccc ccccc ccccc ccccc ccccc
%c cc cc ccc ccc cccc cccc cccc cccc ccccc ccccc ccccc ccccc
%f  0.0000000  0.000000000  0.00000000000  0.000000000000000
%f  0.0000000  0.000000000  0.00000000000  0.000000000000000
%i    0    0    0    0      0      0      0      0         0
%i    0    0    0    0      0      0      0      0         0
/* INFORMATION & ANALYSIS CENTER (IAC)      ULTRA-RAPID DATA
/* S/V CLOCKS ARE ALIGNED TO GNSS TIME                      
/* G:C1WC2W R:C1PC2P E:C1XC5X C:C2IC6I J:C1CC2S             
/* PCV:IGS20_2290 OL/AL:FES2004  NONE     YN ORB:CoN CLK:CoN
*  2023 12 28 21  0  0.00000000
PC06 -16402.938671  38523.630257  -6110.585189    232.399553
PC07  -1161.517518  33429.926203 -25504.985568   -548.420409
PC08      0.000000      0.000000      0.000000 999999.999999
PC09  -9825.548779  37831.824511 -16136.049169   -278.608620
PC10   5116.349574  35388.476838 -21584.535210    -71.235229
PC11    844.373027  26031.129751  10081.689827    329.871226
PC12 -10925.063944  24299.126479  -8255.797592    812.347738
PC13  -4633.596322  22042.824691  35784.790676    401.214937
PC14  11076.829708  21741.125891  13506.541700   -151.624568
PC16 -17195.738572  38352.328147  -4915.384656   -250.951687
PC19 -18388.141949 -20406.200768  -4951.080280   -945.433062
PC20  -3792.312737 -20202.266030 -18876.585220    -13.448138
PC21 -14504.731397   7641.060962  22597.919699   -965.780700
PC22 -23242.883362  -8944.259769  12606.641589   -168.871353
PC23  25165.294351    556.292494 -12064.248677   -797.254573
PC24  -9288.547944  17936.788226 -19264.359431    736.810528
PC25  12132.950205  12339.946815 -21910.522459    288.820757
PC26 -23796.505242  13322.626037  -5844.993644   -226.787395
PC27  14653.476367 -18068.911417  15389.387747    248.805770
PC28  16227.591028   -115.401695  22711.490707    188.476924
PC29  -8470.726886 -20731.871260 -16647.511536    220.723372
PC30   4548.249017 -27520.506610     92.905658    -11.937110
PC32  14512.332643  -7678.988596 -22550.841346   -547.392378
PC33  18419.290584  20329.963360   5086.561643   -941.898768
PC34  -3576.173723  27654.610663   1360.405676    335.010577
PC35 -16296.965781    755.551691 -22651.085358    470.139053
PC36 -11057.080372 -13017.418011  22079.828915    -74.482404
PC37  24422.710627 -12469.457281   5263.733220   -931.407661
PC38 -19788.079496  21307.076042  30520.337082    126.986407
PC39 -18736.811850  37867.643327   1656.174476     -6.351607
PC41  23364.255269   9511.862056 -11875.168538   -875.887243
PC42   2191.286204  19621.098467  19754.358935   -473.655778
PC43   7966.470842  21466.843883  15961.173625     54.172982
PC44 -14126.251668  18462.843470 -15470.780722    336.903723
PC45 -25293.253424   -232.505682  11746.409085    -58.743281
PC46   8339.087812 -17804.987621  19807.405902   -111.180608
PE02 -17405.711866 -16693.410021  17139.124949     90.446227
PE03 -12427.375290 -25969.983152   6884.122488    -83.251261
PE04  18218.486859   9359.246675 -21369.389802   -290.734581
PE05    519.146352 -27297.575153 -11431.606099   4704.960728
PE07 -13479.771963  12242.938950  23335.497745    -95.473153
PE08 -18087.447713 -10061.566663  21158.500558   -199.345941
PE09  13399.434507 -12090.584247 -23466.051164   -279.530502
PE10  23331.198823 -10199.305892  15100.203262   -589.882274
PE11  22667.015391 -18207.895366   5520.451090   3277.542916
PE12  20527.806627  -1373.704451  21280.387149   -838.730998
PE13 -22811.794454  17811.928214  -6213.111131    -19.774327
PE14 -17885.134763 -22862.617445 -14566.116351     -5.248967
PE15 -20232.287691    963.336649 -21572.998347    -77.172805
PE18  14136.664574  13581.155609  13015.407167    147.380498
PE19  10987.990124  27083.061864  -4707.324526   -923.078761
PE21  -3086.788294  16537.059568 -24360.621612   -571.123651
PE24  23133.216831  -6395.816522  17323.487974   -511.349643
PE25   3549.539861 -16423.917449  24368.139617     -1.308008
PE26 -11421.867602  23994.636534  13048.247529    323.109452
PE27 -22745.877855   6766.854350 -17685.277953   -235.563191
PE30 -28710.862006  -7148.739544   -399.815659   -779.362368
PE31  28786.829855   6884.177649    660.970352    -12.620072
PE33   5316.994191  16607.794706  23927.218623      5.009471
PE34  -5860.907664 -16202.127175 -24065.886608    -85.906671
PE36  12027.845673 -23969.768756 -12509.493770   -164.104536
PG01  11581.549006 -21400.685626 -10579.274985    164.781888
PG02  15470.210807 -21287.305750  -2036.071733   -508.992642
PG03   7852.033929 -13083.592785 -21869.678279     87.576026
PG04   2848.982978 -23329.068798 -12230.903648    251.658708
PG05 -19542.797392   7503.930420  16227.239254   -155.867560
PG06 -17701.481131   -510.680183 -19754.145869    463.406335
PG07  -2779.294561 -17695.342704  19943.597597    -23.510089
PG08   8028.593041 -17192.506346  18323.582896   -159.308528
PG09  -6955.666426 -25560.207618  -1528.345940     41.182221
PG10  23072.849283  11093.626320   7886.916325    -67.131259
PG11 -21766.855979   8915.269427 -12261.843454   -518.869422
PG12  -8976.626880  12927.022774 -21670.282958   -462.208491
PG13 -13677.800323   7345.202029  21317.221951    610.343641
PG14 -20411.030920 -13502.388265  10564.899287    283.553673
PG15  -6161.594750  18141.536606  17817.546264    111.587184
PG16  23888.035685   -485.600272  11750.201060   -395.253462
PG17 -12517.518270 -20128.017936 -11403.504211    721.119512
PG18   3184.799591  16539.923445  20503.609399   -518.232803
PG19 -15030.051198 -12333.746385 -18441.741765    418.857418
PG20 -26023.769011   1530.866031   4627.588889    394.327328
PG21  17338.050247 -19359.492388   2043.038819    140.156312
PG22 -23702.517494 -11084.168572   3958.348021     57.900936
PG23  13318.004615  14982.954725  17537.596509    124.653634
PG24 -14785.397768  21678.045972  -2579.376882   -402.918257
PG25   4589.500436  16304.929063 -20850.004338    483.243175
PG26  26511.539337   2923.108589   2022.502328    205.334835
PG27  14665.222589  -3301.013135  21641.216757    -88.459444
PG28  16405.916063   3313.543384 -20644.483484    -82.651774
PG29   3911.374692  26121.668834  -2260.531393   -609.355790
PG30 -12280.078642 -10055.370723  21427.072084   -452.088465
PG31  20943.456725  -4763.861691 -16091.448811   -226.943703
PG32  15227.295748  16619.595784 -14022.641002   -600.531726
PJ02 -29157.147324  14766.186964 -22012.921290     -0.816361
PJ03 -24328.690352  34012.054855  -1636.049308    -13.950095
PJ04 -25353.434805  26758.511900  26400.926127     75.316845
PR01  16525.491201  19426.360355   -220.871379     73.234621
PR02  17062.776339   9313.704441 -16514.985351    -22.350777
PR03   8445.019412  -6776.097972 -23050.994821     91.802309
PR04  -4646.568616 -18567.437293 -16823.512862    217.294768
PR05 -15089.180678 -20492.730265  -1488.149141    124.552945
PR07  -7783.873685   7638.103561  23099.666916     72.368379
PR08   4855.082527  18713.536358  16720.456410    -73.859544
PR09 -24713.919548   1308.024553   6358.015672    161.312205
PR11  -7417.907234  11568.221439 -21486.912596   -224.034378
PR12  13495.209966   7695.973891 -20218.762229     34.992065
PR13  24016.838927    142.408850  -8622.573608    -42.726899
PR14  21361.477846  -8830.063869  10775.902684     25.854767
PR15   5918.279543 -11616.327830  21936.506997     83.578373
PR16 -13238.219763  -7612.117530  20443.975930     21.984559
PR17  13139.740442 -18490.454262  11721.857672     47.516353
PR18   7570.246540 -23881.244111  -4637.383589    119.244627
PR19   -456.078844 -18336.484658 -17720.337228   -259.991779
PR20 -11563.649995   1065.914325 -22700.905688   -105.911033
PR21 -13143.793801  18705.582362 -11280.375821    -64.566495
PR22  -7619.069145  23682.393593   5700.163611    100.501394
PR24  12127.796641  -1923.457041  22384.048795    -37.727626
PR25 -14019.502074  17882.825042 -11560.494518      7.375470
PR26   4380.555504  18309.530223  17221.101074    -21.741861
EOF
